CCSDS_OMM_VERS = 2.0
CREATION_DATE  = 
ORIGINATOR     = 

OBJECT_NAME    = STARLINK-36367
OBJECT_ID      = 2026-020N
CENTER_NAME    = EARTH
REF_FRAME      = TEME
TIME_SYSTEM    = UTC
MEAN_ELEMENT_THEORY = SGP/SGP4

EPOCH          = 2026-02-14T02:09:32.750496
MEAN_MOTION    = 15.82099617
ECCENTRICITY   = .00025356
INCLINATION    = 42.9974
RA_OF_ASC_NODE = 285.4030
ARG_OF_PERICENTER = 273.0397
MEAN_ANOMALY   = 87.0185

EPHEMERIS_TYPE = 0
CLASSIFICATION_TYPE = U
NORAD_CAT_ID   = 67629
ELEMENT_SET_NO = 999
REV_AT_EPOCH   = 236
BSTAR          = .12085662E-2
MEAN_MOTION_DOT = .262864E-2
MEAN_MOTION_DDOT = 0

CCSDS_OMM_VERS = 2.0
CREATION_DATE  = 
ORIGINATOR     = 

OBJECT_NAME    = STARLINK-36416
OBJECT_ID      = 2026-020P
CENTER_NAME    = EARTH
REF_FRAME      = TEME
TIME_SYSTEM    = UTC
MEAN_ELEMENT_THEORY = SGP/SGP4

EPOCH          = 2026-02-14T06:00:02.000160
MEAN_MOTION    = 15.76364488
ECCENTRICITY   = .00018307
INCLINATION    = 42.9985
RA_OF_ASC_NODE = 284.5862
ARG_OF_PERICENTER = 272.7121
MEAN_ANOMALY   = 214.9282

EPHEMERIS_TYPE = 0
CLASSIFICATION_TYPE = U
NORAD_CAT_ID   = 67630
ELEMENT_SET_NO = 999
REV_AT_EPOCH   = 362
BSTAR          = .1198715E-3
MEAN_MOTION_DOT = .19075E-3
MEAN_MOTION_DDOT = 0

CCSDS_OMM_VERS = 2.0
CREATION_DATE  = 
ORIGINATOR     = 

OBJECT_NAME    = STARLINK-36527
OBJECT_ID      = 2026-020Q
CENTER_NAME    = EARTH
REF_FRAME      = TEME
TIME_SYSTEM    = UTC
MEAN_ELEMENT_THEORY = SGP/SGP4

EPOCH          = 2026-02-14T00:36:22.614336
MEAN_MOTION    = 15.82094092
ECCENTRICITY   = .00017008
INCLINATION    = 42.9981
RA_OF_ASC_NODE = 285.7773
ARG_OF_PERICENTER = 321.8647
MEAN_ANOMALY   = 38.2104

EPHEMERIS_TYPE = 0
CLASSIFICATION_TYPE = U
NORAD_CAT_ID   = 67631
ELEMENT_SET_NO = 999
REV_AT_EPOCH   = 235
BSTAR          = .20784458E-2
MEAN_MOTION_DOT = .46304E-2
MEAN_MOTION_DDOT = 0

CCSDS_OMM_VERS = 2.0
CREATION_DATE  = 
ORIGINATOR     = 

OBJECT_NAME    = STARLINK-36633
OBJECT_ID      = 2026-020R
CENTER_NAME    = EARTH
REF_FRAME      = TEME
TIME_SYSTEM    = UTC
MEAN_ELEMENT_THEORY = SGP/SGP4

EPOCH          = 2026-02-14T00:35:18.176352
MEAN_MOTION    = 15.82121897
ECCENTRICITY   = .000236
INCLINATION    = 42.9977
RA_OF_ASC_NODE = 285.7709
ARG_OF_PERICENTER = 264.7997
MEAN_ANOMALY   = 95.2606

EPHEMERIS_TYPE = 0
CLASSIFICATION_TYPE = U
NORAD_CAT_ID   = 67632
ELEMENT_SET_NO = 999
REV_AT_EPOCH   = 235
BSTAR          = .13492666E-2
MEAN_MOTION_DOT = .294931E-2
MEAN_MOTION_DDOT = 0

CCSDS_OMM_VERS = 2.0
CREATION_DATE  = 
ORIGINATOR     = 

OBJECT_NAME    = STARLINK-36637
OBJECT_ID      = 2026-020S
CENTER_NAME    = EARTH
REF_FRAME      = TEME
TIME_SYSTEM    = UTC
MEAN_ELEMENT_THEORY = SGP/SGP4

EPOCH          = 2026-02-14T06:00:02.000160
MEAN_MOTION    = 15.76372624
ECCENTRICITY   = .00017527
INCLINATION    = 42.9986
RA_OF_ASC_NODE = 284.5553
ARG_OF_PERICENTER = 268.6906
MEAN_ANOMALY   = 231.3846

EPHEMERIS_TYPE = 0
CLASSIFICATION_TYPE = U
NORAD_CAT_ID   = 67633
ELEMENT_SET_NO = 999
REV_AT_EPOCH   = 362
BSTAR          = .60586851E-4
MEAN_MOTION_DOT = .9392E-4
MEAN_MOTION_DDOT = 0

CCSDS_OMM_VERS = 2.0
CREATION_DATE  = 
ORIGINATOR     = 

OBJECT_NAME    = STARLINK-36617
OBJECT_ID      = 2026-020T
CENTER_NAME    = EARTH
REF_FRAME      = TEME
TIME_SYSTEM    = UTC
MEAN_ELEMENT_THEORY = SGP/SGP4

EPOCH          = 2026-02-14T00:33:27.310464
MEAN_MOTION    = 15.82169483
ECCENTRICITY   = .00020776
INCLINATION    = 42.9980
RA_OF_ASC_NODE = 285.7604
ARG_OF_PERICENTER = 296.7235
MEAN_ANOMALY   = 63.3424

EPHEMERIS_TYPE = 0
CLASSIFICATION_TYPE = U
NORAD_CAT_ID   = 67634
ELEMENT_SET_NO = 999
REV_AT_EPOCH   = 235
BSTAR          = .20711939E-2
MEAN_MOTION_DOT = .463043E-2
MEAN_MOTION_DDOT = 0

CCSDS_OMM_VERS = 2.0
CREATION_DATE  = 
ORIGINATOR     = 

OBJECT_NAME    = STARLINK-36627
OBJECT_ID      = 2026-020U
CENTER_NAME    = EARTH
REF_FRAME      = TEME
TIME_SYSTEM    = UTC
MEAN_ELEMENT_THEORY = SGP/SGP4

EPOCH          = 2026-02-14T06:00:02.000160
MEAN_MOTION    = 15.76334801
ECCENTRICITY   = .00018347
INCLINATION    = 42.9988
RA_OF_ASC_NODE = 284.4610
ARG_OF_PERICENTER = 278.9125
MEAN_ANOMALY   = 258.4981

EPHEMERIS_TYPE = 0
CLASSIFICATION_TYPE = U
NORAD_CAT_ID   = 67635
ELEMENT_SET_NO = 999
REV_AT_EPOCH   = 362
BSTAR          = .53825005E-3
MEAN_MOTION_DOT = .87953E-3
MEAN_MOTION_DDOT = 0

CCSDS_OMM_VERS = 2.0
CREATION_DATE  = 
ORIGINATOR     = 

OBJECT_NAME    = STARLINK-36624
OBJECT_ID      = 2026-020V
CENTER_NAME    = EARTH
REF_FRAME      = TEME
TIME_SYSTEM    = UTC
MEAN_ELEMENT_THEORY = SGP/SGP4

EPOCH          = 2026-02-14T00:30:46.607328
MEAN_MOTION    = 15.82105448
ECCENTRICITY   = .00015421
INCLINATION    = 42.9981
RA_OF_ASC_NODE = 285.7455
ARG_OF_PERICENTER = 311.8139
MEAN_ANOMALY   = 48.2601

EPHEMERIS_TYPE = 0
CLASSIFICATION_TYPE = U
NORAD_CAT_ID   = 67636
ELEMENT_SET_NO = 999
REV_AT_EPOCH   = 235
BSTAR          = .19402243E-2
MEAN_MOTION_DOT = .430809E-2
MEAN_MOTION_DDOT = 0

CCSDS_OMM_VERS = 2.0
CREATION_DATE  = 
ORIGINATOR     = 

OBJECT_NAME    = STARLINK-36610
OBJECT_ID      = 2026-020W
CENTER_NAME    = EARTH
REF_FRAME      = TEME
TIME_SYSTEM    = UTC
MEAN_ELEMENT_THEORY = SGP/SGP4

EPOCH          = 2026-02-14T06:00:02.000160
MEAN_MOTION    = 15.76363865
ECCENTRICITY   = .0001609
INCLINATION    = 42.9986
RA_OF_ASC_NODE = 284.4925
ARG_OF_PERICENTER = 268.1000
MEAN_ANOMALY   = 256.8638

EPHEMERIS_TYPE = 0
CLASSIFICATION_TYPE = U
NORAD_CAT_ID   = 67637
ELEMENT_SET_NO = 999
REV_AT_EPOCH   = 362
BSTAR          = .85594858E-4
MEAN_MOTION_DOT = .13471E-3
MEAN_MOTION_DDOT = 0

CCSDS_OMM_VERS = 2.0
CREATION_DATE  = 
ORIGINATOR     = 

OBJECT_NAME    = STARLINK-36599
OBJECT_ID      = 2026-020X
CENTER_NAME    = EARTH
REF_FRAME      = TEME
TIME_SYSTEM    = UTC
MEAN_ELEMENT_THEORY = SGP/SGP4

EPOCH          = 2026-02-14T00:27:28.731456
MEAN_MOTION    = 15.82146081
ECCENTRICITY   = .00024893
INCLINATION    = 42.9979
RA_OF_ASC_NODE = 285.7263
ARG_OF_PERICENTER = 300.9202
MEAN_ANOMALY   = 59.1425

EPHEMERIS_TYPE = 0
CLASSIFICATION_TYPE = U
NORAD_CAT_ID   = 67638
ELEMENT_SET_NO = 999
REV_AT_EPOCH   = 235
BSTAR          = .22616003E-2
MEAN_MOTION_DOT = .507762E-2
MEAN_MOTION_DDOT = 0

CCSDS_OMM_VERS = 2.0
CREATION_DATE  = 
ORIGINATOR     = 

OBJECT_NAME    = STARLINK-36595
OBJECT_ID      = 2026-020Y
CENTER_NAME    = EARTH
REF_FRAME      = TEME
TIME_SYSTEM    = UTC
MEAN_ELEMENT_THEORY = SGP/SGP4

EPOCH          = 2026-02-14T03:28:09.382656
MEAN_MOTION    = 15.82083673
ECCENTRICITY   = .00026252
INCLINATION    = 42.9977
RA_OF_ASC_NODE = 284.9456
ARG_OF_PERICENTER = 258.5611
MEAN_ANOMALY   = 101.4966

EPHEMERIS_TYPE = 0
CLASSIFICATION_TYPE = U
NORAD_CAT_ID   = 67639
ELEMENT_SET_NO = 999
REV_AT_EPOCH   = 237
BSTAR          = .129085E-2
MEAN_MOTION_DOT = .281189E-2
MEAN_MOTION_DDOT = 0

CCSDS_OMM_VERS = 2.0
CREATION_DATE  = 
ORIGINATOR     = 

OBJECT_NAME    = STARLINK-36570
OBJECT_ID      = 2026-020Z
CENTER_NAME    = EARTH
REF_FRAME      = TEME
TIME_SYSTEM    = UTC
MEAN_ELEMENT_THEORY = SGP/SGP4

EPOCH          = 2026-02-14T06:00:02.000160
MEAN_MOTION    = 15.76374874
ECCENTRICITY   = .00017898
INCLINATION    = 42.9987
RA_OF_ASC_NODE = 284.3985
ARG_OF_PERICENTER = 251.6806
MEAN_ANOMALY   = 310.6055

EPHEMERIS_TYPE = 0
CLASSIFICATION_TYPE = U
NORAD_CAT_ID   = 67640
ELEMENT_SET_NO = 999
REV_AT_EPOCH   = 362
BSTAR          = -.5151238E-4
MEAN_MOTION_DOT = -.887E-4
MEAN_MOTION_DDOT = 0

